STARLINK-30537          
1 57991U 23153A   25320.28865823  .00004443  00000+0  34370-3 0  9993
2 57991  43.0046 325.3089 0001520 263.4010  96.6660 15.02547037117718
STARLINK-30534          
1 57992U 23153B   25320.69750189  .00003131  00000+0  24661-3 0  9992
2 57992  43.0029 323.2118 0001420 303.6733  56.3974 15.02555585117772
STARLINK-30536          
1 57993U 23153C   25320.34847619  .00006732  00000+0  51263-3 0  9998
2 57993  43.0045 324.8960 0001662 256.5836 103.4821 15.02557098117823
STARLINK-30538          
1 57994U 23153D   25320.34182089  .00004565  00000+0  35276-3 0  9990
2 57994  43.0048 324.8423 0001753 259.3226 100.7419 15.02540044117721
STARLINK-30517          
1 57995U 23153E   25320.73736322 -.00000237  00000+0 -24621-5 0  9997
2 57995  43.0075 322.6529 0002155 268.6881  91.3715 15.02524366117882
STARLINK-30523          
1 57997U 23153G   25320.74400882 -.00000501  00000+0 -22015-4 0  9997
2 57997  43.0030 322.7047 0000403 263.5094  96.5702 15.02542229117886
STARLINK-30531          
1 57998U 23153H   25320.70738118  .00001236  00000+0  10654-3 0  9999
2 57998  43.0019 322.4342 0001618 249.0581 111.0089 15.02544792117886
STARLINK-30552          
1 57999U 23153J   25320.73068284  .00004063  00000+0  31549-3 0  9990
2 57999  43.0057 322.6051 0001410 299.1028  60.9673 15.02554320117889
STARLINK-30545          
1 58000U 23153K   25320.32849493 -.00000960  00000+0 -55953-4 0  9998
2 58000  43.0050 324.7427 0001752 276.0133  84.0510 15.02544310117825
STARLINK-30535          
1 58001U 23153L   25319.72687546  .00006801  00000+0  51802-3 0  9996
2 58001  43.0021 327.9712 0001227 283.5959  76.4747 15.02539261117738
STARLINK-30540          
1 58002U 23153M   25320.69418419  .00009083  00000+0  68618-3 0  9994
2 58002  43.0045 323.1701 0000894 270.0152  90.0588 15.02558884117777
STARLINK-30546          
1 58003U 23153N   25320.72068941  .00007560  00000+0  57354-3 0  9993
2 58003  43.0043 322.5219 0002371 275.7783  84.2789 15.02576517117880
STARLINK-30539          
1 58004U 23153P   25320.31851859  .00007733  00000+0  58697-3 0  9990
2 58004  43.0043 324.6727 0001230 249.9749 110.0961 15.02528811117824
STARLINK-30530          
1 58005U 23153Q   25320.31185148  .00001675  00000+0  13904-3 0  9993
2 58005  43.0013 324.6150 0001714 268.9361  91.1285 15.02533622117824
STARLINK-30526          
1 58006U 23153R   25320.65817558  .00001987  00000+0  16209-3 0  9995
2 58006  43.0064 297.7268 0001481 280.7858  79.2817 15.02541401118165
STARLINK-30527          
1 58007U 23153S   25320.79337666  .00009290  00000+0  34663-3 0  9997
2 58007  42.9974 115.9560 0001715 286.8843  73.1821 15.27586855120194
