[{"OBJECT_NAME":"STARLINK-30537","OBJECT_ID":"2023-153A","EPOCH":"2025-11-16T06:55:40.071072","MEAN_MOTION":15.02547037,"ECCENTRICITY":0.00015201,"INCLINATION":43.0046,"RA_OF_ASC_NODE":325.3089,"ARG_OF_PERICENTER":263.401,"MEAN_ANOMALY":96.666,"EPHEMERIS_TYPE":0,"CLASSIFICATION_TYPE":"U","NORAD_CAT_ID":57991,"ELEMENT_SET_NO":999,"REV_AT_EPOCH":11771,"BSTAR":0.0003437041,"MEAN_MOTION_DOT":4.443e-5,"MEAN_MOTION_DDOT":0},{"OBJECT_NAME":"STARLINK-30534","OBJECT_ID":"2023-153B","EPOCH":"2025-11-16T16:44:24.163296","MEAN_MOTION":15.02555585,"ECCENTRICITY":0.000142,"INCLINATION":43.0029,"RA_OF_ASC_NODE":323.2118,"ARG_OF_PERICENTER":303.6733,"MEAN_ANOMALY":56.3974,"EPHEMERIS_TYPE":0,"CLASSIFICATION_TYPE":"U","NORAD_CAT_ID":57992,"ELEMENT_SET_NO":999,"REV_AT_EPOCH":11777,"BSTAR":0.00024661,"MEAN_MOTION_DOT":3.131e-5,"MEAN_MOTION_DDOT":0},{"OBJECT_NAME":"STARLINK-30536","OBJECT_ID":"2023-153C","EPOCH":"2025-11-16T08:21:48.342816","MEAN_MOTION":15.02557098,"ECCENTRICITY":0.00016623,"INCLINATION":43.0045,"RA_OF_ASC_NODE":324.896,"ARG_OF_PERICENTER":256.5836,"MEAN_ANOMALY":103.4821,"EPHEMERIS_TYPE":0,"CLASSIFICATION_TYPE":"U","NORAD_CAT_ID":57993,"ELEMENT_SET_NO":999,"REV_AT_EPOCH":11782,"BSTAR":0.00051262758,"MEAN_MOTION_DOT":6.732e-5,"MEAN_MOTION_DDOT":0},{"OBJECT_NAME":"STARLINK-30538","OBJECT_ID":"2023-153D","EPOCH":"2025-11-16T08:12:13.324896","MEAN_MOTION":15.02540044,"ECCENTRICITY":0.00017534,"INCLINATION":43.0048,"RA_OF_ASC_NODE":324.8423,"ARG_OF_PERICENTER":259.3226,"MEAN_ANOMALY":100.7419,"EPHEMERIS_TYPE":0,"CLASSIFICATION_TYPE":"U","NORAD_CAT_ID":57994,"ELEMENT_SET_NO":999,"REV_AT_EPOCH":11772,"BSTAR":0.00035275907,"MEAN_MOTION_DOT":4.565e-5,"MEAN_MOTION_DDOT":0},{"OBJECT_NAME":"STARLINK-30517","OBJECT_ID":"2023-153E","EPOCH":"2025-11-16T17:41:48.182208","MEAN_MOTION":15.02524366,"ECCENTRICITY":0.0002155,"INCLINATION":43.0075,"RA_OF_ASC_NODE":322.6529,"ARG_OF_PERICENTER":268.6881,"MEAN_ANOMALY":91.3715,"EPHEMERIS_TYPE":0,"CLASSIFICATION_TYPE":"U","NORAD_CAT_ID":57995,"ELEMENT_SET_NO":999,"REV_AT_EPOCH":11788,"BSTAR":-2.4621e-6,"MEAN_MOTION_DOT":-2.37e-6,"MEAN_MOTION_DDOT":0},{"OBJECT_NAME":"STARLINK-30523","OBJECT_ID":"2023-153G","EPOCH":"2025-11-16T17:51:22.362048","MEAN_MOTION":15.02542229,"ECCENTRICITY":4.03e-5,"INCLINATION":43.003,"RA_OF_ASC_NODE":322.7047,"ARG_OF_PERICENTER":263.5094,"MEAN_ANOMALY":96.5702,"EPHEMERIS_TYPE":0,"CLASSIFICATION_TYPE":"U","NORAD_CAT_ID":57997,"ELEMENT_SET_NO":999,"REV_AT_EPOCH":11788,"BSTAR":-2.2015e-5,"MEAN_MOTION_DOT":-5.01e-6,"MEAN_MOTION_DDOT":0},{"OBJECT_NAME":"STARLINK-30531","OBJECT_ID":"2023-153H","EPOCH":"2025-11-16T16:58:37.733952","MEAN_MOTION":15.02544792,"ECCENTRICITY":0.0001618,"INCLINATION":43.0019,"RA_OF_ASC_NODE":322.4342,"ARG_OF_PERICENTER":249.0581,"MEAN_ANOMALY":111.0089,"EPHEMERIS_TYPE":0,"CLASSIFICATION_TYPE":"U","NORAD_CAT_ID":57998,"ELEMENT_SET_NO":999,"REV_AT_EPOCH":11788,"BSTAR":0.00010654,"MEAN_MOTION_DOT":1.236e-5,"MEAN_MOTION_DDOT":0},{"OBJECT_NAME":"STARLINK-30552","OBJECT_ID":"2023-153J","EPOCH":"2025-11-16T17:32:10.997376","MEAN_MOTION":15.0255432,"ECCENTRICITY":0.000141,"INCLINATION":43.0057,"RA_OF_ASC_NODE":322.6051,"ARG_OF_PERICENTER":299.1028,"MEAN_ANOMALY":60.9673,"EPHEMERIS_TYPE":0,"CLASSIFICATION_TYPE":"U","NORAD_CAT_ID":57999,"ELEMENT_SET_NO":999,"REV_AT_EPOCH":11788,"BSTAR":0.00031549,"MEAN_MOTION_DOT":4.063e-5,"MEAN_MOTION_DDOT":0},{"OBJECT_NAME":"STARLINK-30545","OBJECT_ID":"2023-153K","EPOCH":"2025-11-16T07:53:01.961952","MEAN_MOTION":15.0254431,"ECCENTRICITY":0.00017527,"INCLINATION":43.005,"RA_OF_ASC_NODE":324.7427,"ARG_OF_PERICENTER":276.0133,"MEAN_ANOMALY":84.051,"EPHEMERIS_TYPE":0,"CLASSIFICATION_TYPE":"U","NORAD_CAT_ID":58000,"ELEMENT_SET_NO":999,"REV_AT_EPOCH":11782,"BSTAR":-5.5952543e-5,"MEAN_MOTION_DOT":-9.6e-6,"MEAN_MOTION_DDOT":0},{"OBJECT_NAME":"STARLINK-30535","OBJECT_ID":"2023-153L","EPOCH":"2025-11-15T17:26:42.039744","MEAN_MOTION":15.02539261,"ECCENTRICITY":0.00012274,"INCLINATION":43.0021,"RA_OF_ASC_NODE":327.9712,"ARG_OF_PERICENTER":283.5959,"MEAN_ANOMALY":76.4747,"EPHEMERIS_TYPE":0,"CLASSIFICATION_TYPE":"U","NORAD_CAT_ID":58001,"ELEMENT_SET_NO":999,"REV_AT_EPOCH":11773,"BSTAR":0.00051801705,"MEAN_MOTION_DOT":6.801e-5,"MEAN_MOTION_DDOT":0},{"OBJECT_NAME":"STARLINK-30540","OBJECT_ID":"2023-153M","EPOCH":"2025-11-16T16:39:37.514016","MEAN_MOTION":15.02558884,"ECCENTRICITY":8.94e-5,"INCLINATION":43.0045,"RA_OF_ASC_NODE":323.1701,"ARG_OF_PERICENTER":270.0152,"MEAN_ANOMALY":90.0588,"EPHEMERIS_TYPE":0,"CLASSIFICATION_TYPE":"U","NORAD_CAT_ID":58002,"ELEMENT_SET_NO":999,"REV_AT_EPOCH":11777,"BSTAR":0.00068618,"MEAN_MOTION_DOT":9.083e-5,"MEAN_MOTION_DDOT":0},{"OBJECT_NAME":"STARLINK-30546","OBJECT_ID":"2023-153N","EPOCH":"2025-11-16T17:17:47.565024","MEAN_MOTION":15.02576517,"ECCENTRICITY":0.0002371,"INCLINATION":43.0043,"RA_OF_ASC_NODE":322.5219,"ARG_OF_PERICENTER":275.7783,"MEAN_ANOMALY":84.2789,"EPHEMERIS_TYPE":0,"CLASSIFICATION_TYPE":"U","NORAD_CAT_ID":58003,"ELEMENT_SET_NO":999,"REV_AT_EPOCH":11788,"BSTAR":0.00057354,"MEAN_MOTION_DOT":7.56e-5,"MEAN_MOTION_DDOT":0},{"OBJECT_NAME":"STARLINK-30539","OBJECT_ID":"2023-153P","EPOCH":"2025-11-16T07:38:40.006176","MEAN_MOTION":15.02528811,"ECCENTRICITY":0.00012304,"INCLINATION":43.0043,"RA_OF_ASC_NODE":324.6727,"ARG_OF_PERICENTER":249.9749,"MEAN_ANOMALY":110.0961,"EPHEMERIS_TYPE":0,"CLASSIFICATION_TYPE":"U","NORAD_CAT_ID":58004,"ELEMENT_SET_NO":999,"REV_AT_EPOCH":11782,"BSTAR":0.00058696978,"MEAN_MOTION_DOT":7.733e-5,"MEAN_MOTION_DDOT":0},{"OBJECT_NAME":"STARLINK-30530","OBJECT_ID":"2023-153Q","EPOCH":"2025-11-16T07:29:03.967872","MEAN_MOTION":15.02533622,"ECCENTRICITY":0.00017141,"INCLINATION":43.0013,"RA_OF_ASC_NODE":324.615,"ARG_OF_PERICENTER":268.9361,"MEAN_ANOMALY":91.1285,"EPHEMERIS_TYPE":0,"CLASSIFICATION_TYPE":"U","NORAD_CAT_ID":58005,"ELEMENT_SET_NO":999,"REV_AT_EPOCH":11782,"BSTAR":0.00013903822,"MEAN_MOTION_DOT":1.675e-5,"MEAN_MOTION_DDOT":0},{"OBJECT_NAME":"STARLINK-30526","OBJECT_ID":"2023-153R","EPOCH":"2025-11-16T15:47:46.370112","MEAN_MOTION":15.02541401,"ECCENTRICITY":0.0001481,"INCLINATION":43.0064,"RA_OF_ASC_NODE":297.7268,"ARG_OF_PERICENTER":280.7858,"MEAN_ANOMALY":79.2817,"EPHEMERIS_TYPE":0,"CLASSIFICATION_TYPE":"U","NORAD_CAT_ID":58006,"ELEMENT_SET_NO":999,"REV_AT_EPOCH":11816,"BSTAR":0.00016209,"MEAN_MOTION_DOT":1.987e-5,"MEAN_MOTION_DDOT":0},{"OBJECT_NAME":"STARLINK-30527","OBJECT_ID":"2023-153S","EPOCH":"2025-11-16T19:02:27.743424","MEAN_MOTION":15.27586855,"ECCENTRICITY":0.0001715,"INCLINATION":42.9974,"RA_OF_ASC_NODE":115.956,"ARG_OF_PERICENTER":286.8843,"MEAN_ANOMALY":73.1821,"EPHEMERIS_TYPE":0,"CLASSIFICATION_TYPE":"U","NORAD_CAT_ID":58007,"ELEMENT_SET_NO":999,"REV_AT_EPOCH":12019,"BSTAR":0.00034663,"MEAN_MOTION_DOT":9.29e-5,"MEAN_MOTION_DDOT":0}]
